#dP2022  3 30  0  0  0.00000000      96 __u+U ITR14 FIT  IAC
## 2203 259200.00000000   900.00000000 59668 0.0000000000000
+  125   C01C02C03C04C05C06C07C08C10C11C12C13C14C16C19C20C21
+        C22C23C24C25C26C27C28C29C30C32C33C34C35C36C37C38C39
+        C40C41C42C43C44C45C46C60E01E02E03E04E05E07E08E09E10
+        E11E12E13E14E15E18E19E21E24E25E26E27E30E31E33E34E36
+        G01G02G03G04G05G06G07G08G09G10G11G12G13G14G15G16G17
+        G18G19G20G21G22G23G24G25G26G27G28G29G30G31G32J02J03
+        J07R01R02R03R04R05R06R07R08R09R10R12R13R14R15R17R18
+        R19R20R21R22R23R24  0  0  0  0  0  0  0  0  0  0  0
++        15 15 14 15 15  9  9  9  9  9  9  9  9  9  7  7  8
++         7  7  7  7  7  7  7  7  7  7  7  8  7  8  7  8  8
++         8  7  8  7  7  8  7 15  4  4  5  4  5  5  5  5  4
++         4  4  5  5  4  4  4  4  5  4  5  4  5  5  4  5  4
++         4  4  4  3  4  3  4  4  3  4  4  4  4  4  4  4  4
++         4  4  4  5  4  4  4  4  4  4  5  4  4  4  4  8  9
++        15  7  6  6  6  6 13  6  6  6 13  6  7  6  6  6  6
++         7  7  6  7 13  6  0  0  0  0  0  0  0  0  0  0  0
%c M  cc GPS ccc cccc cccc cccc cccc ccccc ccccc ccccc ccccc
%c cc cc ccc ccc cccc cccc cccc cccc ccccc ccccc ccccc ccccc
%f  0.0000000  0.000000000  0.00000000000  0.000000000000000
%f  0.0000000  0.000000000  0.00000000000  0.000000000000000
%i    0    0    0    0      0      0      0      0         0
%i    0    0    0    0      0      0      0      0         0
/* INFORMATION & ANALYSIS CENTER (IAC)            RAPID DATA
/* S/V CLOCKS ARE ALIGNED TO GNSS TIME                      
/* G:C1WC2W R:C1PC2P E:C1XC5X C:C2IC6I J:C1CC2S             
/* PCV:IGS14_2196 OL/AL:FES2004  NONE     YN ORB:CoN CLK:CoN
*  2022 03 30 12 30  0.00000000
PC01 -34262.230613  24547.181712    487.935560     27.941538
PC02   4241.458292  41943.983426    322.596543    176.815647
PC03 -14849.772874  39426.056218   1099.773780   -563.352718
PC04 -39610.854147  14430.797710    363.662561   -234.651502
PC05  21786.957547  36051.201856    139.142191   -278.376521
PC06 -18023.413205  26692.675094 -27314.228397   -297.190573
PC07 -10032.160787  40169.275791  -7560.962912     70.312848
PC08   -888.778432  24735.622037  34180.102372    228.814002
PC10  -3784.532156  41731.589768   -215.117516    137.651167
PC11 -25391.932680    853.969506 -11454.767536    260.928213
PC12 -12288.504386 -11220.929699 -22366.507054   -632.405849
PC13   8068.409560  29615.029452  29158.608868    -75.001385
PC14 -15647.062574  -2749.916649  22969.608923    453.613697
PC16 -20065.738996  26187.398306 -26234.267143    111.226016
PC19  16055.700241  -8701.131118 -21074.439898    882.371769
PC20  13209.594083  11620.515293 -21633.455315   -861.489311
PC21  -2189.637373 -26273.148079   9206.746906    -23.501098
PC22   9776.011463 -24801.851648  -8290.013165   -963.796904
PC23  -7852.734002  14492.899415 -22518.675042   -937.472905
PC24 -22328.497009 -16609.145116  -1899.361494   -949.569180
PC25 -21247.863316   -166.242952 -18088.477970   -758.355420
PC26 -11583.980539 -21424.105785  13577.473778    758.869765
PC27   2701.737187  15799.052496  22824.353619    699.984111
PC28 -16667.493097  16868.341100  14713.266209     49.457304
PC29  26334.161837  -8887.102319   2455.436270    534.574408
PC30  20426.979481   5335.501827  18227.658023    496.074163
PC32   2337.970015  26258.504382  -9114.712463   -965.431862
PC33 -16058.946006   8646.835948  21127.229514   -972.150531
PC34 -21161.272238  -4673.992354 -17609.195380   -436.832730
PC35  16781.439786 -17309.031044 -14030.307680    205.741029
PC36  21486.346085   1133.799002  17791.607376   -964.808259
PC37  10104.583278  21647.171954 -14431.763943   -931.915225
PC38  -8888.353974  22336.986173  34685.105600    221.597837
PC39 -24988.943122  26589.161962 -21253.671484     34.912843
PC40 -15026.382847  37812.716299 -10749.249735    256.626765
PC41  -9995.241022  24551.416713   8778.298053   -968.257950
PC42 -12899.094256 -12697.757636  21294.428934   -943.933868
PC43 -26470.628722   8319.875433  -3122.494906   -932.979321
PC44  -3147.646005 -15887.062857 -22734.578718    611.509868
PC45   7542.567399 -14561.938533  22573.702966    718.198891
PC46  22813.416899  15770.096432   3277.921191   -245.118213
PC60   7273.049335  41494.645239   1475.372808     -0.489812
PE01  18656.533878  14418.456784  17895.435388   -606.707734
PE02 -18674.996977 -14228.500749 -18021.545632    289.586980
PE03 -18619.770266  -2510.326069  22873.243288   -542.752378
PE04  22452.275300 -15939.284196 -10851.977050   -995.672026
PE05  -3765.670278 -19824.837426  21662.746316   -195.551441
PE07 -13078.528514  25358.402879  -7855.476418   -653.529145
PE08 -22295.966720  16317.718490  10612.242743   -503.831948
PE09  12870.670578 -25407.619610   8092.181409   -466.964903
PE10  18750.174854 -10623.869305 -20295.439969   -503.599393
PE11   7966.700417 -14839.437350 -24346.072449   4095.503164
PE12  26013.923917  -4937.488988 -13205.449498   4687.907686
PE13  -8731.161743  14572.846025  24245.901489    427.667169
PE14 -23497.401573   3637.661526 -15209.116374  -1796.350204
PE15 -26104.246676   4867.047268  13098.251292    754.693957
PE18  23260.634141 -18096.594585   1223.936451  -1623.658451
PE19  17152.786536   4890.316206 -23612.230784  -2175.276195
PE21  12024.475514  26979.624445   1976.660132   -725.530577
PE24   3004.729694 -24126.213244  16847.135575   -533.523893
PE25 -11873.805163 -27053.728064  -1730.488835   -568.617737
PE26  14598.554288  15641.102555  20456.686607   -972.049850
PE27  -1945.697269  24841.026511 -15991.579299   -264.829018
PE30 -15212.855747   6958.574882 -24434.034771   -390.168161
PE31  14664.271525  -8090.905167  24406.900794   -494.302903
PE33  27999.639999   7673.353592   5734.617309   -458.085400
PE34 -28094.066615  -7507.224288  -5535.008602   -509.457181
PE36 -13676.972431 -15656.694689 -21074.092326   -352.568212
PG01 -19685.639205 -13935.714650 -11802.980448    396.697855
PG02  -1649.467152  15365.022785  22255.721780   -652.771526
PG03 -12883.052559 -20521.580326  10904.674473   -185.854422
PG04 -10963.510527 -10567.784828  21771.367206   -179.873262
PG05   4871.530164  25718.881640   3831.389153    -76.506449
PG06 -17829.040765   7481.660033  18312.992853    248.990161
PG07 -26081.891151  -5424.110690  -2800.337954    318.399408
PG08  -2022.989775 -17510.887616 -19791.312002    -61.895804
PG09 -18834.905109    241.729562  18670.376985   -346.832030
PG10  13179.518099  -7725.905669 -21548.363596   -362.899155
PG11  -2587.875815  15086.275514  21703.956267    -50.291032
PG12   9643.170102  23470.610164   7792.191099   -192.702828
PG13  -7685.791782  19590.999709 -16254.128919    285.531269
PG14 -14201.386247   6560.210686 -21462.793934    -98.531711
PG15   5136.522840  17275.902194 -19825.692566    -72.825758
PG16   1120.069565 -25149.224099   7412.197254   -486.391358
PG17 -21961.055154  13490.649599  -6096.980728    593.923530
PG18  25837.686316   5479.860910  -3295.538956    207.745788
PG19 -20660.015376  16511.051803    341.472480    137.785138
PG20   -393.576699  23232.885998  13077.703204    516.066542
PG21 -11298.053627 -15225.063571 -18205.707525    159.962014
PG22  18386.515771 -18702.255888   3912.259382    235.489126
PG23  16096.674430   4599.429220 -20652.151763    -11.038790
PG24  16812.710866  14655.814300 -15018.945241    262.757983
PG25  15765.070869  12538.846295  17163.369860    305.284945
PG26   7502.697353 -18503.279267  17277.958398    194.820652
PG27   9162.559400 -21224.971511 -12913.544930    169.814615
PG28 -10276.361853  15766.229229 -18319.300589    374.620693
PG29  17676.070197   2334.379582  19657.244205   -497.351746
PG30 -24168.602662   1288.090312 -11148.863917   -521.356688
PG31  16224.242498  -9072.405899  19014.487635   -171.213925
PG32  20465.873927 -16233.162339  -4056.016694    -95.033000
PJ02 -19855.602013  23841.010900 -24044.283248     -2.342924
PJ03 -30692.190734  26450.464039  16731.584907     -1.259576
PJ07 -25389.676226  33666.149319    -17.715811      0.023469
PR01  13050.503057  -8280.052030 -20290.287597      7.464801
PR02  10587.835460 -22735.166127  -4429.177524    514.044179
PR03   1545.332952 -22077.511166  12684.055637     54.014106
PR04  -7901.117158  -9089.022989  22517.645869    134.287242
PR05 -13205.666840   8863.053551  19966.806374     90.281727
PR06  -9518.766271  23423.284489   3460.070725    -40.386394
PR07  -1245.313416  21820.093132 -13149.057466     33.254990
PR08   8043.123928   9015.535789 -22407.045396    -64.324811
PR09  -3029.987293  12857.386073 -21794.411032     47.089883
PR10  10031.268830  20212.789364 -11981.350648    -81.070169
PR12  15157.750463   2731.489675  20359.580094     17.666959
PR13   3807.427375 -11842.810770  22248.042474    -20.153529
PR14 -10819.794390 -20488.898335  10690.108224     75.959956
PR15 -18262.788293 -16531.464928  -6607.645367     97.196754
PR17  -2479.892022 -10255.178865 -23216.139620    513.583737
PR18 -18809.078585  -4420.431558 -16674.239149    111.945212
PR19 -25270.953151   2445.238017  -2490.017428   -183.501094
PR20 -16780.816850   9749.702131  16588.540742    -67.687696
PR21   4073.604586   9866.356161  23166.869895   -289.384675
PR22  19294.186840   4143.233190  16083.940097   -173.775410
PR23  24629.606683  -5594.256962  -3539.593785    -35.363963
PR24  15874.282042 -10601.609882 -16907.407429     86.765341
EOF
